[{"OBJECT_NAME":"CAS-2T & KS-1Q","OBJECT_ID":"2016-066G","EPOCH":"2026-03-09T16:58:07.740192","MEAN_MOTION":14.44469485,"ECCENTRICITY":0.03436678,"INCLINATION":98.388,"RA_OF_ASC_NODE":145.5568,"ARG_OF_PERICENTER":71.4405,"MEAN_ANOMALY":292.3791,"EPHEMERIS_TYPE":0,"CLASSIFICATION_TYPE":"U","NORAD_CAT_ID":41847,"ELEMENT_SET_NO":999,"REV_AT_EPOCH":49043,"BSTAR":0.00023398968,"MEAN_MOTION_DOT":1.617e-5,"MEAN_MOTION_DDOT":0},{"OBJECT_NAME":"SL-8 R\/B","OBJECT_ID":"1972-009B","EPOCH":"2026-03-09T16:20:57.469344","MEAN_MOTION":13.79448765,"ECCENTRICITY":0.00290896,"INCLINATION":74.0489,"RA_OF_ASC_NODE":135.8143,"ARG_OF_PERICENTER":73.8834,"MEAN_ANOMALY":41.0632,"EPHEMERIS_TYPE":0,"CLASSIFICATION_TYPE":"U","NORAD_CAT_ID":5847,"ELEMENT_SET_NO":999,"REV_AT_EPOCH":71926,"BSTAR":7.8111071e-5,"MEAN_MOTION_DOT":5.8e-7,"MEAN_MOTION_DDOT":0}]
